#dP2021 12  2  0  0  0.00000000      97 __u+U IGS14 FIT  IAC
## 2186 345600.00000000   900.00000000 59550 0.0000000000000
+  124   C01C02C03C04C05C06C07C08C09C10C11C12C13C14C16C19C20
+        C21C22C23C24C25C26C27C28C29C30C32C33C34C35C36C37C38
+        C39C40C41C42C43C44C45C46C59C60E01E02E03E04E05E07E08
+        E09E11E12E13E14E15E18E19E21E24E25E26E27E30E31E33E36
+        G01G02G03G04G05G06G07G08G09G10G12G13G14G15G16G17G18
+        G19G20G21G22G23G24G25G26G27G28G29G30G31G32J01J02J03
+        J07R01R02R03R04R05R07R08R09R11R12R13R14R15R16R17R18
+        R19R20R21R22R24  0  0  0  0  0  0  0  0  0  0  0  0
++         0  0  0  0  0  0  0  0  0  0  0  0  0  0  0  0  0
++         0  0  0  0  0  0  0  0  0  0  0  0  0  0  0  0  0
++         0  0  0  0  0  0  0  0  0  0  0  0  0  0  0  0  0
++         0  0  0  0  0  0  0  0  0  0  0  0  0  0  0  0  0
++         0  0  0  0  0  0  0  0  0  0  0  0  0  0  0  0  0
++         0  0  0  0  0  0  0  0  0  0  0  0  0  0  0  0  0
++         0  0  0  0  0  0  0  0  0  0  0  0  0  0  0  0  0
++         0  0  0  0  0  0  0  0  0  0  0  0  0  0  0  0  0
%c M  cc GPS ccc cccc cccc cccc cccc ccccc ccccc ccccc ccccc
%c cc cc ccc ccc cccc cccc cccc cccc ccccc ccccc ccccc ccccc
%f  1.2500000  1.025000000  0.00000000000  0.000000000000000
%f  0.0000000  0.000000000  0.00000000000  0.000000000000000
%i    0    0    0    0      0      0      0      0         0
%i    0    0    0    0      0      0      0      0         0
/* INFORMATION & ANALYSIS CENTER (IAC)            FINAL DATA
/* S/V CLOCKS ARE ALIGNED TO GNSS TIME                      
/* G:C1WC2W R:C1PC2P E:C1XC5X C:C2IC6I J:C1CC2S             
/* PCV:IGS14_2178 OL/AL:FES2004  NONE     YN ORB:CoN CLK:CoN
*  2021 12 02  8 45  0.00000000
PC01 -34388.694952  24432.599324   -281.758342 999999.999999
PC02   4459.130116  41915.375257   -423.498136    844.262887
PC03 -14673.752746  39531.070598  -1048.169746    283.558422
PC04 -39675.011112  14349.884880   -400.408282    285.972805
PC05  21943.718448  36000.882512   -257.626120    320.471948
PC06 -16338.682829  28432.955137  26391.556302    573.434034
PC07  -7571.110991  40385.642490   9757.715820    170.281102
PC08     78.768648  24009.458305 -34622.861493    -57.451576
PC09  -9361.799431  27498.459466  30710.548805   -314.469475
PC10  -1482.911810  42320.658966   2723.800127    135.965997
PC11  26389.685477  -7845.159144  -4350.786022   -358.149373
PC12  19559.569929   5323.131707 -19125.151492   -422.741959
PC13   4927.732579  26850.147760 -31920.221722   -190.737795
PC14  15923.037660  -6824.479708  21881.388244    512.021337
PC16 -21545.500627  27927.207676  23056.033053      9.630488
PC19 -13623.948263  17234.659905 -17196.513217    927.891168
PC20 -15662.744310  -2405.520939 -22963.734614   -792.303877
PC21   8374.403349  21816.607477  15271.093662   -942.402862
PC22  -3685.920687  27643.702342  -1262.454169   -970.123059
PC23   -922.778614 -18903.206372 -20508.116818   -963.307551
PC24  24461.829414   9809.350107  -9130.472468   -955.261084
PC25  16045.652061  -7593.799362 -21532.579759   -816.110394
PC26  18874.567646  19273.504301   7053.122184    813.656691
PC27 -11581.125935 -11894.070300  22413.798357    638.669910
PC28   8558.311055 -18212.056809  19338.060275      4.089470
PC29 -23226.830796  14708.578550  -4794.345246    482.092040
PC30 -24656.121379   1771.369360  12929.485850    487.737231
PC32  -8502.207940 -21798.168239 -15199.898937   -958.420992
PC33  13592.288588 -17198.576725  17260.914809   -964.991680
PC34  25007.484041  -2410.590052 -12174.676302   -523.940051
PC35  -8433.276273  18597.093734 -19009.266781     27.280030
PC36 -16595.194888   6823.402227  21398.166167   -819.960951
PC37 -17749.011006 -20011.585494  -7990.423216   -903.117191
PC38 -10538.933657  20960.978106 -35012.118190    193.646870
PC39 -24761.950149  28573.141471  18489.951944     34.202518
PC40 -12997.047091  37519.285022  14400.570519    222.886492
PC41   3879.678528 -27591.058785   1695.768345   -915.494075
PC42  15600.148265   3496.430844  22908.301682   -937.042603
PC43  23591.068103 -14329.157852   4180.047760   -957.044209
PC44  11874.090610  11723.031280 -22377.176855    484.768637
PC45   1179.238073  18875.823280  20512.210185    616.120236
PC46 -24416.048821  -8862.531210  10264.274083    -38.897043
PC59 -32331.322584  27066.836746    414.804194 999999.999999
PC60   7253.811324  41514.105524  -1436.382516     -0.389571
PE01  17401.794295  22038.361069  -9336.582649   -529.332241
PE02 -17467.651884 -21954.965358   9476.467213    264.139931
PE03 -12309.813390 -12126.414900 -24042.753873   -502.057264
PE04  21449.852804  -7598.561062  18927.629519   -912.003491
PE05   4244.168575 -25097.538513 -15116.590069   -229.575630
PE07 -18115.449272  23280.295266  -2503.798404   -613.215128
PE08 -21398.561662   8148.924643 -18770.763402   5895.592158
PE09  17894.126670 -23458.748770   2299.309471   5443.942253
PE11  18461.637495 -11701.195393  19961.351553   4973.464341
PE12  29442.967679    101.592919   3100.150121   4881.257265
PE13 -18965.733674  11421.474339 -19640.294610    424.277079
PE14   4409.788347 -19056.969715  13077.216245  -1660.368568
PE15 -29449.501119    -96.455555  -2991.813351    777.641997
PE18   -948.410595  24659.987456 -21203.392764  -1825.771181
PE19  10348.012951  14275.611113  23771.013421    441.957754
PE21   6732.825255  27535.221564   8508.959894   -702.911787
PE24   9315.123548 -16521.171306 -22741.675320  -1257.596291
PE25  -6576.366867 -27519.899224  -8708.143333   -555.506614
PE26   3766.388912  16328.358032 -24390.150630   -522.373386
PE27  -8437.082407  17478.170208  22351.727530   -177.721465
PE30 -18829.626756  -4129.266518  22464.656776    -76.682673
PE31  18503.444698   2755.409632 -22925.235954   -488.822462
PE33  22544.524001  11503.765697 -15338.634296   -461.900498
PE36  -2617.000715 -16170.579207  24662.240329   -298.146367
PG01  18690.089922  13774.721067 -13480.595762    495.090960
PG02   3421.439876 -15080.418775  22263.302574   -644.238831
PG03  12828.353368  21539.784093   8819.845734    -29.129800
PG04  10052.162163  11461.603129  21747.251043   -200.330275
PG05  -4782.320634 -25434.089763   5440.151685    -63.020020
PG06  19022.791035  -7186.130234  17185.809859    132.177803
PG07  26166.985946   5854.556085   -588.764763    285.748494
PG08     72.361173  18992.913728 -18439.943776    -46.469349
PG09  18316.944281     23.995523  19169.012590   -361.103109
PG10 -13759.755238   5907.989977 -21796.358550   -259.197770
PG12 -10275.343385 -23453.071447   7062.462488   -134.764644
PG13   8697.512152 -20278.028577 -14825.288293    223.259901
PG14  14371.953999  -5556.601408 -21632.292447    -48.369850
PG15  -3274.418845 -19004.901424 -18530.496018   -102.208013
PG16   -349.257222  25010.980361   7945.535582   -433.769067
PG17  21679.545812 -11792.627985  -9412.682828    541.795325
PG18 -26031.231830  -5094.322000  -2194.607029    286.402793
PG19  20825.485780 -16247.005901  -1932.678462     86.823190
PG20   1771.528166 -21861.123178  15145.172900    517.834641
PG21  11463.514732  14801.340406 -18378.420569    152.644110
PG22  10727.500996  24421.713181    480.929857   -451.114548
PG23 -16566.523845  -6698.215369 -19697.853222     26.406394
PG24 -15364.083560 -14688.367231 -16455.389942    272.094141
PG25 -15832.288644 -14652.930911  15407.803329    249.505455
PG26  -8255.374043  16981.601666  18494.095212    161.022105
PG27  -9652.574309  21777.101992 -11519.873199   -226.148358
PG28  10838.117625 -13719.007222 -19525.435578    451.369562
PG29 -15339.812414  -4995.326636  21069.797846   -448.472902
PG30  24337.066889  -1895.287621 -10682.628912   -496.085924
PG31 -17632.744785   8579.750577  18012.231498   -153.025585
PG32 -20482.617223  15360.278454  -6584.766892    -29.497222
PJ01 -25389.487954  30306.009007 -10117.908583    113.450344
PJ02 -24945.812303  23510.347702  29566.956084     -0.243072
PJ03 -34873.698971  20316.955610  -7427.428064     -7.953771
PJ07 -25399.058503  33655.952184     48.181016     -0.031576
PR01  -2222.867421 -20175.713680 -15450.654636     88.907934
PR02 -10871.446964  -1522.149504 -22988.004960    501.965723
PR03 -12361.850556  16213.907886 -15252.687508     47.431398
PR04  -6917.773705  24528.791235    898.036771    116.933170
PR05   2274.560663  19255.655759  16561.050143     83.481899
PR07  12321.127182 -16808.008928  14775.866518    -39.541864
PR08   6880.501084 -24562.777053   -857.822881    -62.311868
PR09  19398.341624  10953.735385 -12472.234154     26.591011
PR11  -2420.484574 -15835.113661 -19837.263805     49.533547
PR12 -15599.245430 -19596.899149  -4868.682101    283.159445
PR13 -19371.066611 -11767.303752  11693.299626    -64.276930
PR14 -11506.244115   3707.341670  22471.803687     71.626602
PR15   2706.477417  16300.464398  19451.183482     99.855817
PR16  16612.632210  18919.013746   3593.727775    -26.032333
PR17 -23108.522109   8545.246398  -6679.453308    479.964061
PR18 -10616.816062  11636.316623 -20027.316176     99.112566
PR19   6128.775992   9174.310677 -22991.429066   -169.152279
PR20  22827.199316    602.596071 -11391.048229    -60.428306
PR21  22487.458493  -8900.226838   8065.953597   -259.040947
PR22   9851.555130 -11557.625515  20515.187844   -148.828753
PR24 -23169.409954    -21.676743  10714.671272     69.421952
EOF
